STARLINK-1013           
1 44719U 19074G   23002.69046501 -.00000073  00000+0  13989-4 0  9998
2 44719  53.0547   3.0504 0002084  41.6348 318.4800 15.06407345174734
STARLINK-1014           
1 44720U 19074H   23002.70795574  .00004390  00000+0  31342-3 0  9990
2 44720  53.0544   2.9583 0002325  41.5210 318.5955 15.06399858173610
STARLINK-1015           
1 44721U 19074J   23002.69783838 -.00001167  00000+0 -59451-4 0  9992
2 44721  53.0558   3.0082 0002393  38.3874 321.7285 15.06400732173602
STARLINK-1016           
1 44722U 19074K   23002.91667824  .01130005  00000+0  91972-2 0  9999
2 44722  53.0545 355.1695 0001226  92.3504 242.2229 15.67624164  1300
STARLINK-1017           
1 44723U 19074L   23002.71626962  .00000396  00000+0  45497-4 0  9997
2 44723  53.0562   2.9188 0002314  41.2438 318.8726 15.06399198173617
STARLINK-1019           
1 44724U 19074M   23002.41401971 -.00001009  00000+0 -48856-4 0  9992
2 44724  53.0542   4.2788 0001925  48.2510 311.8643 15.06398167173562
STARLINK-1020           
1 44725U 19074N   23002.75129248  .00010461  00000+0  72021-3 0  9994
2 44725  53.0550  22.7768 0002087  34.0287 326.0835 15.06395334173338
STARLINK-1021           
1 44726U 19074P   23002.27764291 -.00002714  00000+0 -16339-3 0  9999
2 44726  53.0557   4.8809 0002152  43.1842 316.9315 15.06392093173547
STARLINK-1022           
1 44727U 19074Q   23002.84433342  .00002033  00000+0  15534-3 0  9991
2 44727  53.0554  42.3522 0001609  69.7411 290.3750 15.06397649173085
STARLINK-1024           
1 44729U 19074S   23002.39636746  .00043530  00000+0  18470-2 0  9994
2 44729  53.0133 357.5514 0002005  35.6968 324.4162 15.22697925173615
STARLINK-1026           
1 44731U 19074U   23002.68677849 -.00000530  00000+0 -16627-4 0  9997
2 44731  53.0554   3.0601 0002616  38.7258 321.3918 15.06411932173607
STARLINK-1027           
1 44732U 19074V   23002.74022938 -.00001033  00000+0 -50396-4 0  9998
2 44732  53.0559  22.8226 0002387  38.0165 322.0992 15.06405041173334
STARLINK-1028           
1 44733U 19074W   23002.27396000 -.00002592  00000+0 -15511-3 0  9991
2 44733  53.0580   4.8992 0002164  40.7344 319.3806 15.06401865173547
STARLINK-1029           
1 44734U 19074X   23002.88582616  .00004823  00000+0  34248-3 0  9994
2 44734  53.0529 282.1617 0001882  60.2163 299.9013 15.06395216174735
STARLINK-1030           
1 44735U 19074Y   23002.74760343  .00010743  00000+0  73892-3 0  9991
2 44735  53.0521  22.7907 0002230  37.4700 322.6444 15.06404654173333
STARLINK-1031           
1 44736U 19074Z   23002.76233913  .00000956  00000+0  83105-4 0  9996
2 44736  53.0558  22.7233 0002283  40.4206 319.6952 15.06399922173341
STARLINK-1032           
1 44737U 19074AA  23002.77341198  .00013521  00000+0  92488-3 0  9998
2 44737  53.0542  22.6680 0001639  71.4951 288.6216 15.06397999173345
