[{"OBJECT_NAME":"STARLINK-1013","OBJECT_ID":"2019-074G","EPOCH":"2023-01-02T16:34:16.176864","MEAN_MOTION":15.06407345,"ECCENTRICITY":0.0002084,"INCLINATION":53.0547,"RA_OF_ASC_NODE":3.0504,"ARG_OF_PERICENTER":41.6348,"MEAN_ANOMALY":318.48,"EPHEMERIS_TYPE":0,"CLASSIFICATION_TYPE":"U","NORAD_CAT_ID":44719,"ELEMENT_SET_NO":999,"REV_AT_EPOCH":17473,"BSTAR":1.3989e-5,"MEAN_MOTION_DOT":-7.3e-7,"MEAN_MOTION_DDOT":0},{"OBJECT_NAME":"STARLINK-1014","OBJECT_ID":"2019-074H","EPOCH":"2023-01-02T16:59:27.375936","MEAN_MOTION":15.06399858,"ECCENTRICITY":0.0002325,"INCLINATION":53.0544,"RA_OF_ASC_NODE":2.9583,"ARG_OF_PERICENTER":41.521,"MEAN_ANOMALY":318.5955,"EPHEMERIS_TYPE":0,"CLASSIFICATION_TYPE":"U","NORAD_CAT_ID":44720,"ELEMENT_SET_NO":999,"REV_AT_EPOCH":17361,"BSTAR":0.00031342,"MEAN_MOTION_DOT":4.39e-5,"MEAN_MOTION_DDOT":0},{"OBJECT_NAME":"STARLINK-1015","OBJECT_ID":"2019-074J","EPOCH":"2023-01-02T16:44:53.236032","MEAN_MOTION":15.06400732,"ECCENTRICITY":0.0002393,"INCLINATION":53.0558,"RA_OF_ASC_NODE":3.0082,"ARG_OF_PERICENTER":38.3874,"MEAN_ANOMALY":321.7285,"EPHEMERIS_TYPE":0,"CLASSIFICATION_TYPE":"U","NORAD_CAT_ID":44721,"ELEMENT_SET_NO":999,"REV_AT_EPOCH":17360,"BSTAR":-5.9451e-5,"MEAN_MOTION_DOT":-1.167e-5,"MEAN_MOTION_DDOT":0},{"OBJECT_NAME":"STARLINK-1016","OBJECT_ID":"2019-074K","EPOCH":"2023-01-02T22:00:00.999936","MEAN_MOTION":15.67624164,"ECCENTRICITY":0.0001226,"INCLINATION":53.0545,"RA_OF_ASC_NODE":355.1695,"ARG_OF_PERICENTER":92.3504,"MEAN_ANOMALY":242.2229,"EPHEMERIS_TYPE":0,"CLASSIFICATION_TYPE":"U","NORAD_CAT_ID":44722,"ELEMENT_SET_NO":999,"REV_AT_EPOCH":130,"BSTAR":0.0091972,"MEAN_MOTION_DOT":0.01130005,"MEAN_MOTION_DDOT":0},{"OBJECT_NAME":"STARLINK-1017","OBJECT_ID":"2019-074L","EPOCH":"2023-01-02T17:11:25.695168","MEAN_MOTION":15.06399198,"ECCENTRICITY":0.0002314,"INCLINATION":53.0562,"RA_OF_ASC_NODE":2.9188,"ARG_OF_PERICENTER":41.2438,"MEAN_ANOMALY":318.8726,"EPHEMERIS_TYPE":0,"CLASSIFICATION_TYPE":"U","NORAD_CAT_ID":44723,"ELEMENT_SET_NO":999,"REV_AT_EPOCH":17361,"BSTAR":4.5497e-5,"MEAN_MOTION_DOT":3.96e-6,"MEAN_MOTION_DDOT":0},{"OBJECT_NAME":"STARLINK-1019","OBJECT_ID":"2019-074M","EPOCH":"2023-01-02T09:56:11.302944","MEAN_MOTION":15.06398167,"ECCENTRICITY":0.0001925,"INCLINATION":53.0542,"RA_OF_ASC_NODE":4.2788,"ARG_OF_PERICENTER":48.251,"MEAN_ANOMALY":311.8643,"EPHEMERIS_TYPE":0,"CLASSIFICATION_TYPE":"U","NORAD_CAT_ID":44724,"ELEMENT_SET_NO":999,"REV_AT_EPOCH":17356,"BSTAR":-4.8856e-5,"MEAN_MOTION_DOT":-1.009e-5,"MEAN_MOTION_DDOT":0},{"OBJECT_NAME":"STARLINK-1020","OBJECT_ID":"2019-074N","EPOCH":"2023-01-02T18:01:51.670272","MEAN_MOTION":15.06395334,"ECCENTRICITY":0.0002087,"INCLINATION":53.055,"RA_OF_ASC_NODE":22.7768,"ARG_OF_PERICENTER":34.0287,"MEAN_ANOMALY":326.0835,"EPHEMERIS_TYPE":0,"CLASSIFICATION_TYPE":"U","NORAD_CAT_ID":44725,"ELEMENT_SET_NO":999,"REV_AT_EPOCH":17333,"BSTAR":0.00072021,"MEAN_MOTION_DOT":0.00010461,"MEAN_MOTION_DDOT":0},{"OBJECT_NAME":"STARLINK-1021","OBJECT_ID":"2019-074P","EPOCH":"2023-01-02T06:39:48.347424","MEAN_MOTION":15.06392093,"ECCENTRICITY":0.0002152,"INCLINATION":53.0557,"RA_OF_ASC_NODE":4.8809,"ARG_OF_PERICENTER":43.1842,"MEAN_ANOMALY":316.9315,"EPHEMERIS_TYPE":0,"CLASSIFICATION_TYPE":"U","NORAD_CAT_ID":44726,"ELEMENT_SET_NO":999,"REV_AT_EPOCH":17354,"BSTAR":-0.00016339,"MEAN_MOTION_DOT":-2.714e-5,"MEAN_MOTION_DDOT":0},{"OBJECT_NAME":"STARLINK-1022","OBJECT_ID":"2019-074Q","EPOCH":"2023-01-02T20:15:50.407488","MEAN_MOTION":15.06397649,"ECCENTRICITY":0.0001609,"INCLINATION":53.0554,"RA_OF_ASC_NODE":42.3522,"ARG_OF_PERICENTER":69.7411,"MEAN_ANOMALY":290.375,"EPHEMERIS_TYPE":0,"CLASSIFICATION_TYPE":"U","NORAD_CAT_ID":44727,"ELEMENT_SET_NO":999,"REV_AT_EPOCH":17308,"BSTAR":0.00015534,"MEAN_MOTION_DOT":2.033e-5,"MEAN_MOTION_DDOT":0},{"OBJECT_NAME":"STARLINK-1024","OBJECT_ID":"2019-074S","EPOCH":"2023-01-02T09:30:46.148544","MEAN_MOTION":15.22697925,"ECCENTRICITY":0.0002005,"INCLINATION":53.0133,"RA_OF_ASC_NODE":357.5514,"ARG_OF_PERICENTER":35.6968,"MEAN_ANOMALY":324.4162,"EPHEMERIS_TYPE":0,"CLASSIFICATION_TYPE":"U","NORAD_CAT_ID":44729,"ELEMENT_SET_NO":999,"REV_AT_EPOCH":17361,"BSTAR":0.001847,"MEAN_MOTION_DOT":0.0004353,"MEAN_MOTION_DDOT":0},{"OBJECT_NAME":"STARLINK-1026","OBJECT_ID":"2019-074U","EPOCH":"2023-01-02T16:28:57.661536","MEAN_MOTION":15.06411932,"ECCENTRICITY":0.0002616,"INCLINATION":53.0554,"RA_OF_ASC_NODE":3.0601,"ARG_OF_PERICENTER":38.7258,"MEAN_ANOMALY":321.3918,"EPHEMERIS_TYPE":0,"CLASSIFICATION_TYPE":"U","NORAD_CAT_ID":44731,"ELEMENT_SET_NO":999,"REV_AT_EPOCH":17360,"BSTAR":-1.6627e-5,"MEAN_MOTION_DOT":-5.3e-6,"MEAN_MOTION_DDOT":0},{"OBJECT_NAME":"STARLINK-1027","OBJECT_ID":"2019-074V","EPOCH":"2023-01-02T17:45:55.818432","MEAN_MOTION":15.06405041,"ECCENTRICITY":0.0002387,"INCLINATION":53.0559,"RA_OF_ASC_NODE":22.8226,"ARG_OF_PERICENTER":38.0165,"MEAN_ANOMALY":322.0992,"EPHEMERIS_TYPE":0,"CLASSIFICATION_TYPE":"U","NORAD_CAT_ID":44732,"ELEMENT_SET_NO":999,"REV_AT_EPOCH":17333,"BSTAR":-5.0396e-5,"MEAN_MOTION_DOT":-1.033e-5,"MEAN_MOTION_DDOT":0},{"OBJECT_NAME":"STARLINK-1028","OBJECT_ID":"2019-074W","EPOCH":"2023-01-02T06:34:30.144000","MEAN_MOTION":15.06401865,"ECCENTRICITY":0.0002164,"INCLINATION":53.058,"RA_OF_ASC_NODE":4.8992,"ARG_OF_PERICENTER":40.7344,"MEAN_ANOMALY":319.3806,"EPHEMERIS_TYPE":0,"CLASSIFICATION_TYPE":"U","NORAD_CAT_ID":44733,"ELEMENT_SET_NO":999,"REV_AT_EPOCH":17354,"BSTAR":-0.00015511,"MEAN_MOTION_DOT":-2.592e-5,"MEAN_MOTION_DDOT":0},{"OBJECT_NAME":"STARLINK-1029","OBJECT_ID":"2019-074X","EPOCH":"2023-01-02T21:15:35.380224","MEAN_MOTION":15.06395216,"ECCENTRICITY":0.0001882,"INCLINATION":53.0529,"RA_OF_ASC_NODE":282.1617,"ARG_OF_PERICENTER":60.2163,"MEAN_ANOMALY":299.9013,"EPHEMERIS_TYPE":0,"CLASSIFICATION_TYPE":"U","NORAD_CAT_ID":44734,"ELEMENT_SET_NO":999,"REV_AT_EPOCH":17473,"BSTAR":0.00034248,"MEAN_MOTION_DOT":4.823e-5,"MEAN_MOTION_DDOT":0},{"OBJECT_NAME":"STARLINK-1030","OBJECT_ID":"2019-074Y","EPOCH":"2023-01-02T17:56:32.936352","MEAN_MOTION":15.06404654,"ECCENTRICITY":0.000223,"INCLINATION":53.0521,"RA_OF_ASC_NODE":22.7907,"ARG_OF_PERICENTER":37.47,"MEAN_ANOMALY":322.6444,"EPHEMERIS_TYPE":0,"CLASSIFICATION_TYPE":"U","NORAD_CAT_ID":44735,"ELEMENT_SET_NO":999,"REV_AT_EPOCH":17333,"BSTAR":0.00073892,"MEAN_MOTION_DOT":0.00010743,"MEAN_MOTION_DDOT":0},{"OBJECT_NAME":"STARLINK-1031","OBJECT_ID":"2019-074Z","EPOCH":"2023-01-02T18:17:46.100832","MEAN_MOTION":15.06399922,"ECCENTRICITY":0.0002283,"INCLINATION":53.0558,"RA_OF_ASC_NODE":22.7233,"ARG_OF_PERICENTER":40.4206,"MEAN_ANOMALY":319.6952,"EPHEMERIS_TYPE":0,"CLASSIFICATION_TYPE":"U","NORAD_CAT_ID":44736,"ELEMENT_SET_NO":999,"REV_AT_EPOCH":17334,"BSTAR":8.3105e-5,"MEAN_MOTION_DOT":9.56e-6,"MEAN_MOTION_DDOT":0},{"OBJECT_NAME":"STARLINK-1032","OBJECT_ID":"2019-074AA","EPOCH":"2023-01-02T18:33:42.795072","MEAN_MOTION":15.06397999,"ECCENTRICITY":0.0001639,"INCLINATION":53.0542,"RA_OF_ASC_NODE":22.668,"ARG_OF_PERICENTER":71.4951,"MEAN_ANOMALY":288.6216,"EPHEMERIS_TYPE":0,"CLASSIFICATION_TYPE":"U","NORAD_CAT_ID":44737,"ELEMENT_SET_NO":999,"REV_AT_EPOCH":17334,"BSTAR":0.00092488,"MEAN_MOTION_DOT":0.00013521,"MEAN_MOTION_DDOT":0}]
